MAKERSAT 0              
1 43016U 17073D   26122.62883949  .00024346  00000+0  68576-3 0  9997
2 43016  97.4692   4.8475 0113320  75.3139 286.0630 15.30141865459499
SIRION PATHFINDER-2     
1 43759U 18099B   26122.85245227  .00005105  00000+0  28335-3 0  9997
2 43759  97.4288 172.9929 0010586  97.3107 262.9329 15.14132468405764
CORVUS BC4              
1 43767U 18099K   26122.66580666  .00005349  00000+0  31382-3 0  9990
2 43767  97.4104 166.9821 0009257 149.4493 210.7279 15.12123621405522
M2 PATHFINDER           
1 45727U 20037E   26122.95598558  .00002630  00000+0  19238-3 0  9990
2 45727  97.8148 313.6820 0010641 309.6717  50.3569 15.04471104318694
NETSAT-4                
1 46504U 20068U   26122.92624607  .00018830  00000+0  43757-3 0  9992
2 46504  97.8621 127.5850 0007573 116.1200 244.0826 15.42373226308793
NETSAT-3                
1 46505U 20068V   26122.96178434  .00019966  00000+0  48328-3 0  9999
2 46505  97.8665 125.9000 0007145 128.7975 231.3909 15.41132654308714
NETSAT-1                
1 46506U 20068W   26122.93246690  .00014238  00000+0  44116-3 0  9995
2 46506  97.8750 120.7179 0006019 147.9569 212.2039 15.33545711308367
NETSAT-2                
1 46507U 20068X   26122.95760699  .00023420  00000+0  51310-3 0  9995
2 46507  97.8632 127.3639 0005654 134.3207 225.8504 15.44097949308751
GREENCUBE (IO-117)      
1 53109U 22080E   26122.89410548 -.00000003  00000+0  00000+0 0  9994
2 53109  70.1448 314.0048 0008849 300.3299  59.6486  6.42583286 89154
SITRO-AIS 5 (KATYS)     
1 57176U 23091L   26122.91066276  .00012493  00000+0  45320-3 0  9996
2 57176  97.5089 186.4102 0010046 259.1556 100.8553 15.28432505157428
SITRO-AIS 6 (CHIRKIN)   
1 57192U 23091AC  26122.91936473  .00006961  00000+0  28023-3 0  9993
2 57192  97.5095 185.7707 0010310 263.8792  96.1271 15.25150867157388
SITRO-AIS 8 (ANOKHIN)   
1 57193U 23091AD  26122.93869804  .00015036  00000+0  50448-3 0  9998
2 57193  97.5083 187.8498 0009293 254.1974 105.8242 15.30941526157527
SITRO-AIS 7 (FARTUSHNIY)
1 57194U 23091AE  26122.91358097  .00006347  00000+0  25803-3 0  9996
2 57194  97.5094 185.6123 0010154 265.0450  94.9628 15.24861354157371
SITRO-AIS 10 (BURDAEV)  
1 57199U 23091AK  26122.95805010  .00020543  00000+0  56998-3 0  9990
2 57199  97.5103 192.4762 0006125 222.1117 137.9657 15.36931298157816
SITRO-AIS 9 (SHCHUKIN)  
1 57201U 23091AM  26122.90569066  .00019829  00000+0  55825-3 0  9990
2 57201  97.5101 192.1863 0006314 223.1356 136.9394 15.36482918157797
SITRO-AIS 12 (SMIRENNIY)
1 57204U 23091AQ  26122.90473424  .00019956  00000+0  55681-3 0  9996
2 57204  97.5114 192.6246 0006146 215.8815 144.2017 15.36762204157811
SITRO-AIS 11 (SHEFFER)  
1 57208U 23091AU  26122.93004932  .00021046  00000+0  57977-3 0  9990
2 57208  97.5112 192.8700 0006063 215.6651 144.4189 15.37150472157837
SITRO-AIS 25            
1 59066U 24039R   26122.94588825  .00005813  00000+0  45238-3 0  9997
2 59066  95.3922 204.0102 0147311 125.8654 235.6356 14.93169650117974
SITRO-AIS 26            
1 59067U 24039S   26122.94120703  .00005772  00000+0  45122-3 0  9991
2 59067  95.3923 203.9139 0147613 126.4134 235.0809 14.92976649117968
SITRO-AIS 27            
1 59068U 24039T   26122.92399244  .00006055  00000+0  46888-3 0  9993
2 59068  95.3931 204.1526 0146869 125.1426 236.3664 14.93387170117984
SITRO-AIS 28            
1 59071U 24039U   26122.96949105  .00007045  00000+0  54466-3 0  9999
2 59071  95.3926 204.2286 0146820 124.8501 236.6634 14.93420123117990
GRBBETA                 
1 60237U 24128C   26122.95117814  .00004351  00000+0  30239-3 0  9996
2 60237  61.9920  14.9319 0046354 125.1915 235.3533 15.06272518 99458
OOV-CUBE (TUBSAT-30)    
1 60240U 24128F   26122.93846014  .00002687  00000+0  21158-3 0  9999
2 60240  61.9968  23.3255 0049883 123.8394 236.7460 15.02546322 99315
ROBUSTA-3A (MEDITERRAN*)
1 60243U 24128J   26122.94559121  .00008801  00000+0  52366-3 0  9992
2 60243  61.9883   8.1476 0047009 119.2509 241.3298 15.10972610 99587
LASARSAT                
1 62391U 24247Q   26122.39064147  .00031068  00000+0  68054-3 0  9990
2 62391  44.9719 158.9894 0004991  33.9249 326.1958 15.43602131 76232
CROCUBE                 
1 62394U 24247T   26122.11532374  .00032949  00000+0  68548-3 0  9992
2 62394  44.9705 158.5357 0004635  32.7877 327.3300 15.45098537 76212
FORESAIL-1 PRIME        
1 66778U 25276DS  26122.92280660  .00005181  00000+0  25599-3 0  9999
2 66778  97.4214 197.0332 0000851 243.2434 116.8713 15.18286426 23537
KNACKSAT-2              
1 67683U 98067XZ  26122.80756444  .00037310  00000+0  52540-3 0  9993
2 67683  51.6275 162.0389 0012718  29.5787 330.5921 15.56178419 13200
